1 34088U 97051CX  26115.12424740  .00022435  00000+0  17573-2 0  9994
2 34088  86.3819 328.9640 0005477  83.0777  41.9904 15.00888212907364
